{"type": "FeatureCollection", "features": [ {"type": "Feature", "properties": {"norad_id": 30530, "name": "FENGYUN 1C DEB", "group": "fengyun-1c-debris", "lat": 32.533149059853365, "lon": -142.60675229451292, "alt_km": 705.5065044466273, "timestamp": "2025-12-19T18:58:41.865002+00:00", "meta": {"OBJECT_NAME": "FENGYUN 1C DEB", "OBJECT_ID": "1999-025AJU", "EPOCH": "2025-12-19T01:50:36.117024", "MEAN_MOTION": 14.36792477, "ECCENTRICITY": 0.0100352, "INCLINATION": 98.3956, "RA_OF_ASC_NODE": 31.2913, "ARG_OF_PERICENTER": 118.0445, "MEAN_ANOMALY": 297.5725, "EPHEMERIS_TYPE": 0, "CLASSIFICATION_TYPE": "U", "NORAD_CAT_ID": 30530, "ELEMENT_SET_NO": 999, "REV_AT_EPOCH": 98876, "BSTAR": 0.00017799341, "MEAN_MOTION_DOT": 5.13e-06, "MEAN_MOTION_DDOT": 0}, "tle": {"line1": "1 30530U 99025AJU 25353.07680691  .00000513  00000+0  17799-3 0  9995", "line2": "2 30530  98.3956  31.2913 0100352 118.0445 297.5725 14.36792477988761"}}, "geometry": {"type": "Point", "coordinates": [-142.60675229451292, 32.533149059853365]}}, {"type": "Feature", "properties": {"norad_id": 30531, "name": "FENGYUN 1C DEB", "group": "fengyun-1c-debris", "lat": 69.79954207835247, "lon": 39.760578328774145, "alt_km": 676.349145075892, "timestamp": "2025-12-19T18:58:41.865012+00:00", "meta": {"OBJECT_NAME": "FENGYUN 1C DEB", "OBJECT_ID": "1999-025AJV", "EPOCH": "2025-12-18T19:30:03.383424", "MEAN_MOTION": 14.62096706, "ECCENTRICITY": 0.00271266, "INCLINATION": 102.3098, "RA_OF_ASC_NODE": 181.9061, "ARG_OF_PERICENTER": 189.7897, "MEAN_ANOMALY": 170.2764, "EPHEMERIS_TYPE": 0, "CLASSIFICATION_TYPE": "U", "NORAD_CAT_ID": 30531, "ELEMENT_SET_NO": 999, "REV_AT_EPOCH": 97784, "BSTAR": 0.0032490217, "MEAN_MOTION_DOT": 0.00016368, "MEAN_MOTION_DDOT": 0}, "tle": {"line1": "1 30531U 99025AJV 25352.81253916  .00016368  00000+0  32490-2 0  9992", "line2": "2 30531 102.3098 181.9061 0027126 189.7897 170.2764 14.62096706977843"}}, "geometry": {"type": "Point", "coordinates": [39.760578328774145, 69.79954207835247]}}, {"type": "Feature", "properties": {"norad_id": 30532, "name": "FENGYUN 1C DEB", "group": "fengyun-1c-debris", "lat": 82.86258196982465, "lon": -38.75669147375712, "alt_km": 480.69771256600325, "timestamp": "2025-12-19T18:58:41.865022+00:00", "meta": {"OBJECT_NAME": "FENGYUN 1C DEB", "OBJECT_ID": "1999-025AJW", "EPOCH": "2025-12-19T01:19:26.438304", "MEAN_MOTION": 15.29667643, "ECCENTRICITY": 0.00222923, "INCLINATION": 96.9604, "RA_OF_ASC_NODE": 37.8806, "ARG_OF_PERICENTER": 236.4532, "MEAN_ANOMALY": 123.458, "EPHEMERIS_TYPE": 0, "CLASSIFICATION_TYPE": "U", "NORAD_CAT_ID": 30532, "ELEMENT_SET_NO": 999, "REV_AT_EPOCH": 97784, "BSTAR": 0.0094371164, "MEAN_MOTION_DOT": 0.00283054, "MEAN_MOTION_DDOT": 0}, "tle": {"line1": "1 30532U 99025AJW 25353.05516711  .00283054  00000+0  94371-2 0  9999", "line2": "2 30532  96.9604  37.8806 0022292 236.4532 123.4580 15.29667643977840"}}, "geometry": {"type": "Point", "coordinates": [-38.75669147375712, 82.86258196982465]}}, {"type": "Feature", "properties": {"norad_id": 30533, "name": "FENGYUN 1C DEB", "group": "fengyun-1c-debris", "lat": -54.38146039823352, "lon": -69.54592868392116, "alt_km": 736.4135962188029, "timestamp": "2025-12-19T18:58:41.865033+00:00", "meta": {"OBJECT_NAME": "FENGYUN 1C DEB", "OBJECT_ID": "1999-025AJX", "EPOCH": "2025-12-18T22:40:11.811360", "MEAN_MOTION": 14.53966263, "ECCENTRICITY": 0.00818995, "INCLINATION": 98.8339, "RA_OF_ASC_NODE": 122.0989, "ARG_OF_PERICENTER": 130.6284, "MEAN_ANOMALY": 357.1459, "EPHEMERIS_TYPE": 0, "CLASSIFICATION_TYPE": "U", "NORAD_CAT_ID": 30533, "ELEMENT_SET_NO": 999, "REV_AT_EPOCH": 97911, "BSTAR": 0.0023736705, "MEAN_MOTION_DOT": 0.00010415, "MEAN_MOTION_DDOT": 0}, "tle": {"line1": "1 30533U 99025AJX 25352.94458115  .00010415  00000+0  23737-2 0  9997", "line2": "2 30533  98.8339 122.0989 0081899 130.6284 357.1459 14.53966263979112"}}, "geometry": {"type": "Point", "coordinates": [-69.54592868392116, -54.38146039823352]}}, {"type": "Feature", "properties": {"norad_id": 30539, "name": "FENGYUN 1C DEB", "group": "fengyun-1c-debris", "lat": -0.3399281552106369, "lon": -25.25730409848795, "alt_km": 731.9529516820339, "timestamp": "2025-12-19T18:58:41.865043+00:00", "meta": {"OBJECT_NAME": "FENGYUN 1C DEB", "OBJECT_ID": "1999-025AKD", "EPOCH": "2025-12-18T21:31:50.076768", "MEAN_MOTION": 14.55438589, "ECCENTRICITY": 0.01152378, "INCLINATION": 98.8802, "RA_OF_ASC_NODE": 333.7398, "ARG_OF_PERICENTER": 256.9326, "MEAN_ANOMALY": 101.8986, "EPHEMERIS_TYPE": 0, "CLASSIFICATION_TYPE": "U", "NORAD_CAT_ID": 30539, "ELEMENT_SET_NO": 999, "REV_AT_EPOCH": 99455, "BSTAR": 0.00050342283, "MEAN_MOTION_DOT": 2.334e-05, "MEAN_MOTION_DDOT": 0}, "tle": {"line1": "1 30539U 99025AKD 25352.89710737  .00002334  00000+0  50342-3 0  9992", "line2": "2 30539  98.8802 333.7398 0115237 256.9326 101.8986 14.55438589994552"}}, "geometry": {"type": "Point", "coordinates": [-25.25730409848795, -0.3399281552106369]}}, {"type": "Feature", "properties": {"norad_id": 30540, "name": "FENGYUN 1C DEB", "group": "fengyun-1c-debris", "lat": -19.211727168996845, "lon": 105.42322022033743, "alt_km": 770.8844571916316, "timestamp": "2025-12-19T18:58:41.865053+00:00", "meta": {"OBJECT_NAME": "FENGYUN 1C DEB", "OBJECT_ID": "1999-025AKE", "EPOCH": "2025-12-19T05:56:00.544992", "MEAN_MOTION": 14.32337197, "ECCENTRICITY": 0.00509206, "INCLINATION": 98.8788, "RA_OF_ASC_NODE": 101.7444, "ARG_OF_PERICENTER": 42.7758, "MEAN_ANOMALY": 17.293, "EPHEMERIS_TYPE": 0, "CLASSIFICATION_TYPE": "U", "NORAD_CAT_ID": 30540, "ELEMENT_SET_NO": 999, "REV_AT_EPOCH": 97379, "BSTAR": 0.0012788048, "MEAN_MOTION_DOT": 3.459e-05, "MEAN_MOTION_DDOT": 0}, "tle": {"line1": "1 30540U 99025AKE 25353.24722853  .00003459  00000+0  12788-2 0  9996", "line2": "2 30540  98.8788 101.7444 0050920  42.7758  17.2930 14.32337197973799"}}, "geometry": {"type": "Point", "coordinates": [105.42322022033743, -19.211727168996845]}}, {"type": "Feature", "properties": {"norad_id": 30541, "name": "FENGYUN 1C DEB", "group": "fengyun-1c-debris", "lat": 39.62004972940321, "lon": -132.47854461762643, "alt_km": 808.2311434721187, "timestamp": "2025-12-19T18:58:41.865064+00:00", "meta": {"OBJECT_NAME": "FENGYUN 1C DEB", "OBJECT_ID": "1999-025AKF", "EPOCH": "2025-12-18T01:49:38.048448", "MEAN_MOTION": 14.23078007, "ECCENTRICITY": 0.00179968, "INCLINATION": 98.6943, "RA_OF_ASC_NODE": 38.551, "ARG_OF_PERICENTER": 70.8105, "MEAN_ANOMALY": 289.502, "EPHEMERIS_TYPE": 0, "CLASSIFICATION_TYPE": "U", "NORAD_CAT_ID": 30541, "ELEMENT_SET_NO": 999, "REV_AT_EPOCH": 97403, "BSTAR": 0.00091389007, "MEAN_MOTION_DOT": 2.021e-05, "MEAN_MOTION_DDOT": 0}, "tle": {"line1": "1 30541U 99025AKF 25352.07613482  .00002021  00000+0  91389-3 0  9993", "line2": "2 30541  98.6943  38.5510 0017996  70.8105 289.5020 14.23078007974030"}}, "geometry": {"type": "Point", "coordinates": [-132.47854461762643, 39.62004972940321]}}, {"type": "Feature", "properties": {"norad_id": 30542, "name": "FENGYUN 1C DEB", "group": "fengyun-1c-debris", "lat": -40.78106469148287, "lon": 30.00510258797575, "alt_km": 856.5297924373644, "timestamp": "2025-12-19T18:58:41.865074+00:00", "meta": {"OBJECT_NAME": "FENGYUN 1C DEB", "OBJECT_ID": "1999-025AKG", "EPOCH": "2025-12-19T07:30:49.178880", "MEAN_MOTION": 14.06976741, "ECCENTRICITY": 0.00272615, "INCLINATION": 98.7863, "RA_OF_ASC_NODE": 21.8743, "ARG_OF_PERICENTER": 315.2503, "MEAN_ANOMALY": 105.2181, "EPHEMERIS_TYPE": 0, "CLASSIFICATION_TYPE": "U", "NORAD_CAT_ID": 30542, "ELEMENT_SET_NO": 999, "REV_AT_EPOCH": 97011, "BSTAR": 0.00022857289, "MEAN_MOTION_DOT": 3.4e-06, "MEAN_MOTION_DDOT": 0}, "tle": {"line1": "1 30542U 99025AKG 25353.31306920  .00000340  00000+0  22857-3 0  9994", "line2": "2 30542  98.7863  21.8743 0027261 315.2503 105.2181 14.06976741970110"}}, "geometry": {"type": "Point", "coordinates": [30.00510258797575, -40.78106469148287]}}, {"type": "Feature", "properties": {"norad_id": 30543, "name": "FENGYUN 1C DEB", "group": "fengyun-1c-debris", "lat": -47.4773495558817, "lon": 12.919477231604464, "alt_km": 862.7930780281376, "timestamp": "2025-12-19T18:58:41.865084+00:00", "meta": {"OBJECT_NAME": "FENGYUN 1C DEB", "OBJECT_ID": "1999-025AKH", "EPOCH": "2025-12-18T13:01:50.098080", "MEAN_MOTION": 14.03747444, "ECCENTRICITY": 0.00723024, "INCLINATION": 98.833, "RA_OF_ASC_NODE": 1.945, "ARG_OF_PERICENTER": 17.4956, "MEAN_ANOMALY": 112.7161, "EPHEMERIS_TYPE": 0, "CLASSIFICATION_TYPE": "U", "NORAD_CAT_ID": 30543, "ELEMENT_SET_NO": 999, "REV_AT_EPOCH": 96586, "BSTAR": 0.00022477751, "MEAN_MOTION_DOT": 3.19e-06, "MEAN_MOTION_DDOT": 0}, "tle": {"line1": "1 30543U 99025AKH 25352.54294095  .00000319  00000+0  22478-3 0  9993", "line2": "2 30543  98.8330   1.9450 0072302  17.4956 112.7161 14.03747444965864"}}, "geometry": {"type": "Point", "coordinates": [12.919477231604464, -47.4773495558817]}}, {"type": "Feature", "properties": {"norad_id": 30545, "name": "FENGYUN 1C DEB", "group": "fengyun-1c-debris", "lat": -3.864884504192811, "lon": -154.37144834488066, "alt_km": 827.8590482873033, "timestamp": "2025-12-19T18:58:41.865094+00:00", "meta": {"OBJECT_NAME": "FENGYUN 1C DEB", "OBJECT_ID": "1999-025AKK", "EPOCH": "2025-12-16T01:55:01.765920", "MEAN_MOTION": 13.20785031, "ECCENTRICITY": 0.04726799, "INCLINATION": 98.9986, "RA_OF_ASC_NODE": 201.8152, "ARG_OF_PERICENTER": 2.8282, "MEAN_ANOMALY": 357.5348, "EPHEMERIS_TYPE": 0, "CLASSIFICATION_TYPE": "U", "NORAD_CAT_ID": 30545, "ELEMENT_SET_NO": 999, "REV_AT_EPOCH": 90974, "BSTAR": 0.00057440201, "MEAN_MOTION_DOT": 3.84e-06, "MEAN_MOTION_DDOT": 0}, "tle": {"line1": "1 30545U 99025AKK 25350.07988155  .00000384  00000+0  57440-3 0  9997", "line2": "2 30545  98.9986 201.8152 0472679   2.8282 357.5348 13.20785031909748"}}, "geometry": {"type": "Point", "coordinates": [-154.37144834488066, -3.864884504192811]}}]}